NORAD_CAT_ID,OBJECT_NAME,OBJECT_TYPE,EPOCH,MEAN_MOTION,ECCENTRICITY,INCLINATION,RA_OF_ASC_NODE,ARG_OF_PERICENTER,MEAN_ANOMALY,BSTAR,MEAN_MOTION_DOT,MEAN_MOTION_DDOT,TLE_LINE0,TLE_LINE1,TLE_LINE2,SEMIMAJOR_AXIS,PERIOD,APOGEE,PERIGEE,DECAYED
53588.0,STARLINK-4691,PAYLOAD,2024-05-14 23:30:32,15.08860246,0.000128,53.2186,343.882,88.4771,271.6368,0.00029338,4.387e-05,0.0,0 STARLINK-4691,1 53588U 22104A   24135.97954409  .00004387  00000-0  29338-3 0  9990,2 53588  53.2186 343.8820 0001280  88.4771 271.6368 15.08860246 94725,6917.819,95.436,540.569,538.798,0.0
53588.0,STARLINK-4691,PAYLOAD,2024-05-15 07:27:28,15.08858899,0.0001242,53.2183,342.3943,90.806,269.3075,0.00032477,4.887e-05,0.0,0 STARLINK-4691,1 53588U 22104A   24136.31074180  .00004887  00000-0  32477-3 0  9991,2 53588  53.2183 342.3943 0001242  90.8060 269.3075 15.08858899 95943,6917.823,95.436,540.547,538.828,0.0
53588.0,STARLINK-4691,PAYLOAD,2024-05-15 20:10:32,15.08859406,0.0001537,53.2189,340.0114,116.1628,243.9522,0.00015155,2.126e-05,0.0,0 STARLINK-4691,1 53588U 22104A   24136.84065504  .00002126  00000-0  15155-3 0  9997,2 53588  53.2189 340.0114 0001537 116.1628 243.9522 15.08859406 94852,6917.821,95.436,540.749,538.623,0.0
53588.0,STARLINK-4691,PAYLOAD,2024-05-16 20:01:19,15.08849665,0.0001536,53.2187,335.5525,102.5892,257.5272,2.4264e-05,9.8e-07,0.0,0 STARLINK-4691,1 53588U 22104A   24137.83425470  .00000098  00000-0  24264-4 0  9997,2 53588  53.2187 335.5525 0001536 102.5892 257.5272 15.08849665 95003,6917.851,95.437,540.778,538.653,0.0
53588.0,STARLINK-4691,PAYLOAD,2024-05-17 13:30:35,15.08825501,0.0001457,53.2183,332.282,98.5449,261.5708,-0.00021214,-3.661e-05,0.0,0 STARLINK-4691,1 53588U 22104A   24138.56290813 -.00003661  00000-0 -21214-3 0  9991,2 53588  53.2183 332.2820 0001457  98.5449 261.5708 15.08825501 95119,6917.925,95.438,540.798,538.782,0.0
53588.0,STARLINK-4691,PAYLOAD,2024-05-17 19:52:08,15.08820623,8.08e-05,53.2191,331.0919,76.2484,283.8598,-0.00015637,-2.774e-05,0.0,0 STARLINK-4691,1 53588U 22104A   24138.82788148 -.00002774  00000-0 -15637-3 0  9999,2 53588  53.2191 331.0919 0000808  76.2484 283.8598 15.08820623 95153,6917.94,95.439,540.364,539.246,0.0
53588.0,STARLINK-4691,PAYLOAD,2024-05-18 05:24:26,15.08843421,7.7e-05,53.2161,329.3083,95.7747,264.3333,6.783e-05,7.92e-06,0.0,0 STARLINK-4691,1 53588U 22104A   24139.22530128  .00000792  00000-0  67830-4 0  9996,2 53588  53.2161 329.3083 0000770  95.7747 264.3333 15.08843421 95217,6917.87,95.437,540.268,539.202,0.0
53588.0,STARLINK-4691,PAYLOAD,2024-05-18 19:42:52,15.08855813,8.44e-05,53.2163,326.6312,71.5996,288.5088,0.00037328,5.661e-05,0.0,0 STARLINK-4691,1 53588U 22104A   24139.82144544  .00005661  00000-0  37328-3 0  9993,2 53588  53.2163 326.6312 0000844  71.5996 288.5088 15.08855813 95307,6917.832,95.437,540.281,539.113,0.0
53588.0,STARLINK-4691,PAYLOAD,2024-05-18 22:53:38,15.08857884,9.01e-05,53.2168,326.0367,74.7184,285.3907,0.00037833,5.741e-05,0.0,0 STARLINK-4691,1 53588U 22104A   24139.95392327  .00005741  00000-0  37833-3 0  9991,2 53588  53.2168 326.0367 0000901  74.7184 285.3907 15.08857884 96490,6917.826,95.436,540.314,539.067,0.0
53588.0,STARLINK-4691,PAYLOAD,2024-05-19 21:09:06,15.08814049,0.0001868,53.218,321.8741,89.2775,270.8431,3.3635e-05,2.47e-06,0.0,0 STARLINK-4691,1 53588U 22104A   24140.88132859  .00000247  00000-0  33635-4 0  9990,2 53588  53.2180 321.8741 0001868  89.2775 270.8431 15.08814049 95466,6917.96,95.439,541.117,538.532,0.0
53588.0,STARLINK-4691,PAYLOAD,2024-05-19 22:44:29,15.08814407,0.0001919,53.2177,321.5767,90.7512,269.37,3.2347e-05,2.26e-06,0.0,0 STARLINK-4691,1 53588U 22104A   24140.94756897  .00000226  00000-0  32347-4 0  9997,2 53588  53.2177 321.5767 0001919  90.7512 269.3700 15.08814407 96641,6917.959,95.439,541.151,538.496,0.0
53588.0,STARLINK-4691,PAYLOAD,2024-05-20 20:59:51,15.08856343,0.0001835,53.2172,317.4106,53.4173,306.6987,-3.0428e-05,-7.73e-06,0.0,0 STARLINK-4691,1 53588U 22104A   24141.87490645 -.00000773  00000-0 -30428-4 0  9993,2 53588  53.2172 317.4106 0001835  53.4173 306.6987 15.08856343 95616,6917.83,95.437,540.965,538.426,0.0
53588.0,STARLINK-4691,PAYLOAD,2024-05-21 20:50:39,15.08831661,9.73e-05,53.218,312.9524,82.5092,277.601,0.00018697,2.688e-05,0.0,0 STARLINK-4691,1 53588U 22104A   24142.86851422  .00002688  00000-0  18697-3 0  9995,2 53588  53.2180 312.9524 0000973  82.5092 277.6010 15.08831661 95760,6917.906,95.438,540.444,539.098,0.0
53588.0,STARLINK-4691,PAYLOAD,2024-05-22 11:09:07,15.08837866,0.0001106,53.2178,310.2751,118.0002,242.1103,4.2227e-05,3.84e-06,0.0,0 STARLINK-4691,1 53588U 22104A   24143.46467468  .00000384  00000-0  42227-4 0  9993,2 53588  53.2178 310.2751 0001106 118.0002 242.1103 15.08837866 97029,6917.887,95.438,540.517,538.987,0.0
53588.0,STARLINK-4691,PAYLOAD,2024-05-23 10:59:54,15.0884004,0.0001135,53.2191,305.8161,108.6637,251.4478,6.3692e-05,7.26e-06,0.0,0 STARLINK-4691,1 53588U 22104A   24144.45827223  .00000726  00000-0  63692-4 0  9991,2 53588  53.2191 305.8161 0001135 108.6637 251.4478 15.08840040 96003,6917.88,95.438,540.53,538.96,0.0
53588.0,STARLINK-4691,PAYLOAD,2024-05-23 14:10:41,15.08838179,0.0001118,53.219,305.2209,107.2537,252.8577,4.2871e-05,3.95e-06,0.0,0 STARLINK-4691,1 53588U 22104A   24144.59075400  .00000395  00000-0  42871-4 0  9996,2 53588  53.2190 305.2209 0001118 107.2537 252.8577 15.08838179 97190,6917.886,95.438,540.524,538.978,0.0
53588.0,STARLINK-4691,PAYLOAD,2024-05-23 20:32:13,15.08838675,0.0001118,53.2189,304.0313,110.8374,249.2738,4.37e-05,4.08e-06,0.0,0 STARLINK-4691,1 53588U 22104A   24144.85571376  .00000408  00000-0  43700-4 0  9995,2 53588  53.2189 304.0313 0001118 110.8374 249.2738 15.08838675 97235,6917.884,95.438,540.523,538.976,0.0
53588.0,STARLINK-4691,PAYLOAD,2024-05-24 14:01:28,15.08840098,0.0001085,53.2187,300.7602,111.5273,248.5834,4.4361e-05,4.18e-06,0.0,0 STARLINK-4691,1 53588U 22104A   24145.58435292  .00000418  00000-0  44361-4 0  9997,2 53588  53.2187 300.7602 0001085 111.5273 248.5834 15.08840098 97349,6917.88,95.438,540.496,538.994,0.0
53588.0,STARLINK-4691,PAYLOAD,2024-05-24 20:23:00,15.08841839,0.0001172,53.2185,299.5711,111.6464,248.4653,5.4368e-05,5.78e-06,0.0,0 STARLINK-4691,1 53588U 22104A   24145.84931121  .00000578  00000-0  54368-4 0  9993,2 53588  53.2185 299.5711 0001172 111.6464 248.4653 15.08841839 96210,6917.875,95.437,540.551,538.929,0.0
53588.0,STARLINK-4691,PAYLOAD,2024-05-25 10:41:29,15.08835097,0.0001144,53.2181,296.8947,102.733,257.379,3.8655e-05,3.27e-06,0.0,0 STARLINK-4691,1 53588U 22104A   24146.44547649  .00000327  00000-0  38655-4 0  9991,2 53588  53.2181 296.8947 0001144 102.7330 257.3790 15.08835097 96309,6917.895,95.438,540.552,538.969,0.0
53588.0,STARLINK-4691,PAYLOAD,2024-05-25 13:52:15,15.08831992,0.0001166,53.2183,296.2998,108.8001,251.3117,9.0599e-06,-1.44e-06,0.0,0 STARLINK-4691,1 53588U 22104A   24146.57795959 -.00000144  00000-0  90599-5 0  9998,2 53588  53.2183 296.2998 0001166 108.8001 251.3117 15.08831992 97495,6917.905,95.438,540.576,538.963,0.0
53588.0,STARLINK-4691,PAYLOAD,2024-05-26 02:35:20,15.08842883,0.0001025,53.218,293.9236,86.6879,273.4231,6.5502e-05,7.55e-06,0.0,0 STARLINK-4691,1 53588U 22104A   24147.10787282  .00000755  00000-0  65502-4 0  9990,2 53588  53.2180 293.9236 0001025  86.6879 273.4231 15.08842883 96404,6917.872,95.437,540.446,539.027,0.0
53588.0,STARLINK-4691,PAYLOAD,2024-05-26 13:43:03,15.08835028,0.0001222,53.2188,291.8488,113.3106,246.8015,-4.9027e-05,-1.068e-05,0.0,0 STARLINK-4691,1 53588U 22104A   24147.57156428 -.00001068  00000-0 -49027-4 0  9997,2 53588  53.2188 291.8488 0001222 113.3106 246.8015 15.08835028 97642,6917.896,95.438,540.606,538.915,0.0
53588.0,STARLINK-4691,PAYLOAD,2024-05-26 20:04:36,15.08824381,0.0001162,53.2183,290.6539,89.6661,270.4465,-0.00013898,-2.498e-05,0.0,0 STARLINK-4691,1 53588U 22104A   24147.83653360 -.00002498  00000-0 -13898-3 0  9997,2 53588  53.2183 290.6539 0001162  89.6661 270.4465 15.08824381 96512,6917.928,95.439,540.597,538.989,0.0
53588.0,STARLINK-4691,PAYLOAD,2024-05-27 13:33:50,15.0881276,0.0001293,53.2193,287.3889,65.514,294.5987,0.0002902,4.33e-05,0.0,0 STARLINK-4691,1 53588U 22104A   24148.56516921  .00004330  00000-0  29020-3 0  9998,2 53588  53.2193 287.3889 0001293  65.5140 294.5987 15.08812760 97799,6917.964,95.439,540.723,538.934,0.0
53588.0,STARLINK-4691,PAYLOAD,2024-05-27 18:19:59,15.08839438,0.0001031,53.2184,286.4886,78.0778,282.033,0.00014664,2.047e-05,0.0,0 STARLINK-4691,1 53588U 22104A   24148.76387778  .00002047  00000-0  14664-3 0  9997,2 53588  53.2184 286.4886 0001031  78.0778 282.0330 15.08839438 96651,6917.882,95.438,540.46,539.034,0.0
53588.0,STARLINK-4691,PAYLOAD,2024-05-28 13:24:37,15.08838866,0.0001167,53.2191,282.9213,81.6404,278.4721,4.3154e-05,3.99e-06,0.0,0 STARLINK-4691,1 53588U 22104A   24149.55876259  .00000399  00000-0  43154-4 0  9997,2 53588  53.2191 282.9213 0001167  81.6404 278.4721 15.08838866 97940,6917.884,95.438,540.556,538.942,0.0
53588.0,STARLINK-4691,PAYLOAD,2024-05-28 16:35:23,15.08839647,0.0001147,53.2189,282.3265,77.0466,283.0654,4.6385e-05,4.5e-06,0.0,0 STARLINK-4691,1 53588U 22104A   24149.69124207  .00000450  00000-0  46385-4 0  9998,2 53588  53.2189 282.3265 0001147  77.0466 283.0654 15.08839647 97960,6917.881,95.438,540.54,538.953,0.0
53588.0,STARLINK-4691,PAYLOAD,2024-05-29 13:15:23,15.08843809,0.000108,53.2189,278.4616,79.3023,280.8091,-3.8094e-06,-3.48e-06,0.0,0 STARLINK-4691,1 53588U 22104A   24150.55236070 -.00000348  00000-0 -38094-5 0  9994,2 53588  53.2189 278.4616 0001080  79.3023 280.8091 15.08843809 98096,6917.869,95.437,540.481,538.987,0.0
53588.0,STARLINK-4691,PAYLOAD,2024-05-29 14:50:47,15.08844106,0.0001096,53.2189,278.1643,78.0683,282.0432,-1.1511e-06,-3.06e-06,0.0,0 STARLINK-4691,1 53588U 22104A   24150.61860029 -.00000306  00000-0 -11511-5 0  9997,2 53588  53.2189 278.1643 0001096  78.0683 282.0432 15.08844106 98104,6917.868,95.437,540.491,538.975,0.0
